[
    {
        "name": "ONEWEB-0057",
        "id": 45160,
        "line1": "1 45160U 20008AF  20256.58334491 -.00008319  00000-0 -58976-2 0  9998",
        "line2": "2 45160  87.7157  95.6411 0016945 245.1383 198.4537 13.97818238 33092",
        "epoch": "2020-09-12T14:00:01Z"
    },
    {
        "name": "ONEWEB-0058",
        "id": 45161,
        "line1": "1 45161U 20008AG  20256.58334491 -.01438808  00000-0 -90285+0 0  9996",
        "line2": "2 45161  87.7484  95.6454 0018365 241.4451 198.1445 14.07854820  1736",
        "epoch": "2020-09-12T14:00:01Z"
    },
    {
        "name": "ONEWEB-0059",
        "id": 45162,
        "line1": "1 45162U 20008AH  20256.58334491 -.01405025  00000-0 -80120+0 0  9999",
        "line2": "2 45162  87.7173  95.4600 0020780 236.2346   7.5343 14.13580445  1727",
        "epoch": "2020-09-12T14:00:01Z"
    },
    {
        "name": "ONEWEB-0062",
        "id": 45163,
        "line1": "1 45163U 20008AJ  20256.58334491 -.00008896  00000-0 -63804-2 0  9997",
        "line2": "2 45163  87.7250  95.6096 0016129 245.7879 171.6289 13.97164670 33112",
        "epoch": "2020-09-12T14:00:01Z"
    },
    {
        "name": "ONEWEB-0065",
        "id": 45164,
        "line1": "1 45164U 20008AK  20256.58334491 -.00008459  00000-0 -60306-2 0  9997",
        "line2": "2 45164  87.6842  95.6208 0019983 264.5727 167.4803 13.97474788 32901",
        "epoch": "2020-09-12T14:00:01Z"
    },
    {
        "name": "ONEWEB-0066",
        "id": 45424,
        "line1": "1 45424U 20020A   20256.58334491 -.00035353  00000-0 -36985-2 0  9999",
        "line2": "2 45424  87.5581  82.9886 0025481  19.7549   4.3447 14.89699878  1788",
        "epoch": "2020-09-12T14:00:01Z"
    },
    {
        "name": "ONEWEB-0067",
        "id": 45425,
        "line1": "1 45425U 20020B   20256.58334491 -.00037370  00000-0 -39078-2 0  9997",
        "line2": "2 45425  87.5547  82.9641 0027340  18.5166  72.3570 14.89689376  1759",
        "epoch": "2020-09-12T14:00:01Z"
    },
    {
        "name": "ONEWEB-0080",
        "id": 45426,
        "line1": "1 45426U 20020C   20256.58334491 -.00037668  00000-0 -38843-2 0  9997",
        "line2": "2 45426  87.5661  83.0879 0029133  20.7490 254.8159 14.90213012  1773",
        "epoch": "2020-09-12T14:00:01Z"
    },
    {
        "name": "ONEWEB-0090",
        "id": 45427,
        "line1": "1 45427U 20020D   20256.58334491 -.00040943  00000-0 -43080-2 0  9997",
        "line2": "2 45427  87.5457  82.9219 0028158  22.6174 205.5880 14.89439905  1783",
        "epoch": "2020-09-12T14:00:01Z"
    },
    {
        "name": "ONEWEB-0061",
        "id": 45428,
        "line1": "1 45428U 20020E   20256.58334491 -.01449961  00000-0 -18108+0 0  9992",
        "line2": "2 45428  87.5196  82.7261 0029395  25.7758 254.3407 14.85293473  1764",
        "epoch": "2020-09-12T14:00:01Z"
    },
    {
        "name": "ONEWEB-0081",
        "id": 45429,
        "line1": "1 45429U 20020F   20256.58334491 -.00036076  00000-0 -37737-2 0  9993",
        "line2": "2 45429  87.5557  82.9951 0029151  26.4585  37.4538 14.89630575  1778",
        "epoch": "2020-09-12T14:00:01Z"
    },
    {
        "name": "ONEWEB-0069",
        "id": 45430,
        "line1": "1 45430U 20020G   20256.58334491 -.00040800  00000-0 -42041-2 0  9999",
        "line2": "2 45430  87.5600  82.9988 0030114  29.4464 198.1417 14.90236079  1773",
        "epoch": "2020-09-12T14:00:01Z"
    },
    {
        "name": "ONEWEB-0031",
        "id": 45431,
        "line1": "1 45431U 20020H   20256.58334491 -.00035411  00000-0 -36976-2 0  9992",
        "line2": "2 45431  87.5488  82.9264 0027414  28.6733 317.8780 14.89735788  1776",
        "epoch": "2020-09-12T14:00:01Z"
    },
    {
        "name": "ONEWEB-0027",
        "id": 45432,
        "line1": "1 45432U 20020J   20256.58334491 -.00041478  00000-0 -43137-2 0  9990",
        "line2": "2 45432  87.5592  82.9804 0027955  30.9977 181.1601 14.89916131  1787",
        "epoch": "2020-09-12T14:00:01Z"
    },
    {
        "name": "ONEWEB-0064",
        "id": 45433,
        "line1": "1 45433U 20020K   20256.58334491 -.00041496  00000-0 -43361-2 0  9990",
        "line2": "2 45433  87.5580  82.9953 0027313  31.0565 179.7873 14.89739238  1766",
        "epoch": "2020-09-12T14:00:01Z"
    },
    {
        "name": "ONEWEB-0018",
        "id": 45434,
        "line1": "1 45434U 20020L   20256.58334491 -.00041410  00000-0 -42703-2 0  9996",
        "line2": "2 45434  87.5489  82.9239 0026732  32.3800 185.6077 14.90281203  1759",
        "epoch": "2020-09-12T14:00:01Z"
    },
    {
        "name": "ONEWEB-0083",
        "id": 45435,
        "line1": "1 45435U 20020M   20256.58334491 -.00038978  00000-0 -40345-2 0  9992",
        "line2": "2 45435  87.5464  82.9214 0026086  31.7104 229.5800 14.90133246  1753",
        "epoch": "2020-09-12T14:00:01Z"
    },
    {
        "name": "ONEWEB-0095",
        "id": 45436,
        "line1": "1 45436U 20020N   20256.58334491 -.00035301  00000-0 -36525-2 0  9995",
        "line2": "2 45436  87.5657  83.0220 0024253  28.3971 348.2735 14.90166979  1783",
        "epoch": "2020-09-12T14:00:01Z"
    },
    {
        "name": "ONEWEB-0092",
        "id": 45437,
        "line1": "1 45437U 20020P   20256.58334491 -.00035568  00000-0 -37056-2 0  9991",
        "line2": "2 45437  87.5644  83.0354 0023722  28.0682 299.6360 14.89900856  1774",
        "epoch": "2020-09-12T14:00:01Z"
    },
    {
        "name": "ONEWEB-0085",
        "id": 45438,
        "line1": "1 45438U 20020Q   20256.58334491 -.00036415  00000-0 -37921-2 0  9995",
        "line2": "2 45438  87.5640  82.9971 0024123  27.2256 276.0899 14.89915797  1741",
        "epoch": "2020-09-12T14:00:01Z"
    },
    {
        "name": "ONEWEB-0096",
        "id": 45439,
        "line1": "1 45439U 20020R   20256.58334491 -.00041209  00000-0 -42627-2 0  9992",
        "line2": "2 45439  87.5664  83.0270 0025213  26.5512 133.0400 14.90187751  1787",
        "epoch": "2020-09-12T14:00:01Z"
    },
    {
        "name": "ONEWEB-0037",
        "id": 45440,
        "line1": "1 45440U 20020S   20256.58334491 -.00035299  00000-0 -36455-2 0  9998",
        "line2": "2 45440  87.5637  82.9963 0025394  25.9601 328.2868 14.90219129  1778",
        "epoch": "2020-09-12T14:00:01Z"
    },
    {
        "name": "ONEWEB-0042",
        "id": 45441,
        "line1": "1 45441U 20020T   20256.58334491 -.00036403  00000-0 -37908-2 0  9991",
        "line2": "2 45441  87.5643  83.0152 0025368  25.9030  41.7776 14.89892130  1777",
        "epoch": "2020-09-12T14:00:01Z"
    },
    {
        "name": "ONEWEB-0098",
        "id": 45442,
        "line1": "1 45442U 20020U   20256.58334491 -.00035240  00000-0 -36210-2 0  9995",
        "line2": "2 45442  87.5672  83.0193 0027139  24.1618 342.5176 14.90387895  1782",
        "epoch": "2020-09-12T14:00:01Z"
    },
    {
        "name": "ONEWEB-0055",
        "id": 45443,
        "line1": "1 45443U 20020V   20256.58334491 -.00035221  00000-0 -36657-2 0  9990",
        "line2": "2 45443  87.5636  83.0020 0028565  24.7731 336.1426 14.89842291  1789",
        "epoch": "2020-09-12T14:00:01Z"
    },
    {
        "name": "ONEWEB-0093",
        "id": 45444,
        "line1": "1 45444U 20020W   20256.58334491 -.00036688  00000-0 -37853-2 0  9998",
        "line2": "2 45444  87.5873  83.1274 0028873  24.3589 267.5150 14.90191522  1758",
        "epoch": "2020-09-12T14:00:01Z"
    },
    {
        "name": "ONEWEB-0029",
        "id": 45445,
        "line1": "1 45445U 20020X   20256.58334491 -.00040267  00000-0 -41636-2 0  9991",
        "line2": "2 45445  87.5727  83.0490 0028339  26.5552 114.7906 14.90133726  1751",
        "epoch": "2020-09-12T14:00:01Z"
    },
    {
        "name": "ONEWEB-0068",
        "id": 45446,
        "line1": "1 45446U 20020Y   20256.58334491 -.00036610  00000-0 -37873-2 0  9997",
        "line2": "2 45446  87.5714  83.0505 0029093  28.4103  45.9676 14.90080317  1796",
        "epoch": "2020-09-12T14:00:01Z"
    },
    {
        "name": "ONEWEB-0046",
        "id": 45447,
        "line1": "1 45447U 20020Z   20256.58334491 -.00037988  00000-0 -39427-2 0  9994",
        "line2": "2 45447  87.5671  83.0487 0028443  29.6620 242.3920 14.89969929  1779",
        "epoch": "2020-09-12T14:00:01Z"
    },
    {
        "name": "ONEWEB-0063",
        "id": 45448,
        "line1": "1 45448U 20020AA  20256.58334491 -.00041738  00000-0 -43015-2 0  9991",
        "line2": "2 45448  87.5722  83.0489 0030000  30.0540 153.8981 14.90236161  1778",
        "epoch": "2020-09-12T14:00:01Z"
    },
    {
        "name": "ONEWEB-0019",
        "id": 45449,
        "line1": "1 45449U 20020AB  20256.58334491 -.00037206  00000-0 -38336-2 0  9997",
        "line2": "2 45449  87.5545  82.8879 0029709  32.2461 258.7294 14.90229817  1763",
        "epoch": "2020-09-12T14:00:01Z"
    },
    {
        "name": "ONEWEB-0094",
        "id": 45450,
        "line1": "1 45450U 20020AC  20256.58334491 -.00041758  00000-0 -43058-2 0  9993",
        "line2": "2 45450  87.5722  83.0403 0028622  34.9192 158.4158 14.90246216  1757",
        "epoch": "2020-09-12T14:00:01Z"
    },
    {
        "name": "ONEWEB-0087",
        "id": 45451,
        "line1": "1 45451U 20020AD  20256.58334491 -.00041404  00000-0 -43367-2 0  9995",
        "line2": "2 45451  87.5645  83.0199 0027895  36.4655 129.0852 14.89631011  1783",
        "epoch": "2020-09-12T14:00:01Z"
    },
    {
        "name": "ONEWEB-0082",
        "id": 45452,
        "line1": "1 45452U 20020AE  20256.58334491 -.00036234  00000-0 -37380-2 0  9999",
        "line2": "2 45452  87.5882  83.1164 0028045  36.4524  28.3478 14.90213360  1750",
        "epoch": "2020-09-12T14:00:01Z"
    },
    {
        "name": "ONEWEB-0050",
        "id": 45453,
        "line1": "1 45453U 20020AF  20256.58334491 -.00040194  00000-0 -36907-2 0  9994",
        "line2": "2 45453  87.5369  82.8486 0027269  31.9452 211.3529 14.94868819  1762",
        "epoch": "2020-09-12T14:00:01Z"
    }
]